[{"OBJECT_NAME":"ZY-1 02D","OBJECT_ID":"2019-059A","EPOCH":"2026-03-09T22:47:25.027872","MEAN_MOTION":14.35449537,"ECCENTRICITY":0.00025574,"INCLINATION":98.3302,"RA_OF_ASC_NODE":133.9003,"ARG_OF_PERICENTER":74.5944,"MEAN_ANOMALY":285.5525,"EPHEMERIS_TYPE":0,"CLASSIFICATION_TYPE":"U","NORAD_CAT_ID":44528,"ELEMENT_SET_NO":999,"REV_AT_EPOCH":34010,"BSTAR":2.8589968e-5,"MEAN_MOTION_DOT":4.0e-7,"MEAN_MOTION_DDOT":0},{"OBJECT_NAME":"OPS 6226 (DMSP 5C F7)","OBJECT_ID":"1975-043A","EPOCH":"2026-03-09T12:21:05.384160","MEAN_MOTION":14.25203976,"ECCENTRICITY":0.00528164,"INCLINATION":98.6201,"RA_OF_ASC_NODE":276.3793,"ARG_OF_PERICENTER":109.1122,"MEAN_ANOMALY":251.5786,"EPHEMERIS_TYPE":0,"CLASSIFICATION_TYPE":"U","NORAD_CAT_ID":7816,"ELEMENT_SET_NO":999,"REV_AT_EPOCH":34564,"BSTAR":0.00014865899,"MEAN_MOTION_DOT":3.11e-6,"MEAN_MOTION_DDOT":0}]
